JILIN-1                 
1 40961U 15057D   26197.86547725  .00000369  00000+0  57422-4 0  9998
2 40961  97.6520 195.7608 0017378 161.5910 198.5934 14.78202799579993
JILIN-1 03              
1 41914U 17002B   26197.81323221  .00007949  00000+0  18668-3 0  9996
2 41914  97.1949 204.4945 0007796  75.0425 285.1685 15.42256908526426
JILIN-1 04              
1 43022U 17074A   26197.85632249  .00008584  00000+0  19570-3 0  9993
2 43022  97.4883 308.2782 0005241  96.0121 264.1724 15.43160325478840
JILIN-1 05              
1 43023U 17074B   26197.79943288  .00004638  00000+0  14207-3 0  9993
2 43023  97.4885 304.3654 0006515 120.2306 239.9583 15.34300759478545
JILIN-1 06              
1 43024U 17074C   26197.84087297  .00003486  00000+0  10834-3 0  9991
2 43024  97.4810 301.3770 0008185 129.1949 231.0022 15.34007659478382
JILIN-1 07              
1 43159U 18008E   26197.81980909  .00004880  00000+0  14512-3 0  9993
2 43159  97.1764 216.9663 0006582 321.0724  39.0045 15.35180377469540
JILIN-1 08              
1 43160U 18008F   26197.84107097  .00003275  00000+0  10181-3 0  9992
2 43160  97.1802 216.2696 0005112 346.2202  13.8901 15.34021183469495
JILIN-1 09              
1 43943U 19005B   26197.85752911  .00002391  00000+0  11182-3 0  9991
2 43943  97.4747 292.5720 0002174  32.2754 327.8614 15.20749168413650
JILIN-1 10              
1 43946U 19005E   26197.83347985  .00003103  00000+0  12341-3 0  9993
2 43946  97.4800 296.6452 0008729 164.4213 195.7295 15.26017438413831
